STARLINK-31710          
1 59378U 24062E   26068.71549580  .00001032  00000+0  46990-4 0  9994
2 59378  53.1602 255.6643 0001228  96.7544 263.3597 15.30191972109632
ION SCV-017             
1 63230U 25052W   26068.71648816  .00006457  00000+0  24539-3 0  9998
2 63230  97.4016 324.7516 0023746  44.9875 315.3282 15.26881798 54851
